NORAD_CAT_ID,OBJECT_NAME,OBJECT_TYPE,EPOCH,MEAN_MOTION,ECCENTRICITY,INCLINATION,RA_OF_ASC_NODE,ARG_OF_PERICENTER,MEAN_ANOMALY,BSTAR,MEAN_MOTION_DOT,MEAN_MOTION_DDOT,TLE_LINE0,TLE_LINE1,TLE_LINE2,SEMIMAJOR_AXIS,PERIOD,APOGEE,PERIGEE,DECAYED
53776.0,STARLINK-4708,PAYLOAD,2024-04-03 13:32:39,15.08836046,0.000128,53.2168,204.7184,84.4846,275.6292,-0.00013439,-2.426e-05,0.0,0 STARLINK-4708,1 53776U 22111D   24094.56434249 -.00002426  00000-0 -13439-3 0  9990,2 53776  53.2168 204.7184 0001280  84.4846 275.6292 15.08836046 87454,6917.892,95.438,540.643,538.872,0.0
53776.0,STARLINK-4708,PAYLOAD,2024-04-03 15:08:02,15.08838087,0.0001228,53.2165,204.4208,83.5878,276.5254,-0.00015203,-2.706e-05,0.0,0 STARLINK-4708,1 53776U 22111D   24094.63058177 -.00002706  00000-0 -15203-3 0  9992,2 53776  53.2165 204.4208 0001228  83.5878 276.5254 15.08838087 87468,6917.886,95.438,540.601,538.902,0.0
53776.0,STARLINK-4708,PAYLOAD,2024-04-04 00:40:20,15.08838386,0.0001228,53.2165,202.6365,83.6955,276.4177,-0.00013102,-2.372e-05,0.0,0 STARLINK-4708,1 53776U 22111D   24095.02802025 -.00002372  00000-0 -13102-3 0  9990,2 53776  53.2165 202.6365 0001228  83.6955 276.4177 15.08838386 86430,6917.885,95.438,540.6,538.901,0.0
53776.0,STARLINK-4708,PAYLOAD,2024-04-04 13:23:25,15.08853751,0.0001202,53.2165,200.2571,82.5148,277.598,-0.0003246,-5.452e-05,0.0,0 STARLINK-4708,1 53776U 22111D   24095.55793225 -.00005452  00000-0 -32460-3 0  9999,2 53776  53.2165 200.2571 0001202  82.5148 277.5980 15.08853751 86513,6917.838,95.437,540.535,538.872,0.0
53776.0,STARLINK-4708,PAYLOAD,2024-04-05 00:31:07,15.08827014,0.0001229,53.2163,198.1759,80.6431,279.47,6.1984e-05,6.98e-06,0.0,0 STARLINK-4708,1 53776U 22111D   24096.02161867  .00000698  00000-0  61984-4 0  9992,2 53776  53.2163 198.1759 0001229  80.6431 279.4700 15.08827014 86588,6917.92,95.438,540.635,538.935,0.0
53776.0,STARLINK-4708,PAYLOAD,2024-04-05 13:14:13,15.08830406,0.0001224,53.2161,195.7969,80.3627,279.7503,7.9757e-05,9.81e-06,0.0,0 STARLINK-4708,1 53776U 22111D   24096.55153941  .00000981  00000-0  79757-4 0  9996,2 53776  53.2161 195.7969 0001224  80.3627 279.7503 15.08830406 87754,6917.91,95.438,540.621,538.928,0.0
53776.0,STARLINK-4708,PAYLOAD,2024-04-06 13:05:00,15.08834744,0.0001243,53.2161,191.3364,79.6352,280.478,5.0952e-05,5.23e-06,0.0,0 STARLINK-4708,1 53776U 22111D   24097.54514161  .00000523  00000-0  50952-4 0  9999,2 53776  53.2161 191.3364 0001243  79.6352 280.4780 15.08834744 86813,6917.896,95.438,540.621,538.902,0.0
53776.0,STARLINK-4708,PAYLOAD,2024-04-07 12:55:47,15.08832262,0.0001255,53.2162,186.8759,78.5241,281.5892,-1.9689e-05,-6.01e-06,0.0,0 STARLINK-4708,1 53776U 22111D   24098.53874878 -.00000601  00000-0 -19689-4 0  9994,2 53776  53.2162 186.8759 0001255  78.5241 281.5892 15.08832262 88056,6917.904,95.438,540.637,538.901,0.0
53776.0,STARLINK-4708,PAYLOAD,2024-04-07 22:28:06,15.08833886,0.0001217,53.2155,185.0909,75.4313,284.6814,-1.4825e-05,-5.24e-06,0.0,0 STARLINK-4708,1 53776U 22111D   24098.93618878 -.00000524  00000-0 -14825-4 0  9995,2 53776  53.2155 185.0909 0001217  75.4313 284.6814 15.08833886 88118,6917.899,95.438,540.606,538.922,0.0
53776.0,STARLINK-4708,PAYLOAD,2024-04-08 12:46:34,15.08836318,0.0001204,53.2154,182.4148,75.4002,284.7124,6.3993e-06,-1.86e-06,0.0,0 STARLINK-4708,1 53776U 22111D   24099.53234820 -.00000186  00000-0  63993-5 0  9997,2 53776  53.2154 182.4148 0001204  75.4002 284.7124 15.08836318 88202,6917.892,95.438,540.59,538.924,0.0
53776.0,STARLINK-4708,PAYLOAD,2024-04-08 22:18:53,15.08837247,0.0001245,53.2155,180.6305,75.2492,284.8638,2.6093e-05,1.27e-06,0.0,0 STARLINK-4708,1 53776U 22111D   24099.92978757  .00000127  00000-0  26093-4 0  9997,2 53776  53.2155 180.6305 0001245  75.2492 284.8638 15.08837247 88263,6917.889,95.438,540.615,538.893,0.0
53776.0,STARLINK-4708,PAYLOAD,2024-04-09 09:26:35,15.08832935,0.000126,53.2158,178.5494,80.1057,280.0077,2.8379e-05,1.64e-06,0.0,0 STARLINK-4708,1 53776U 22111D   24100.39347122  .00000164  00000-0  28379-4 0  9997,2 53776  53.2158 178.5494 0001260  80.1057 280.0077 15.08832935 88332,6917.902,95.438,540.639,538.895,0.0
53776.0,STARLINK-4708,PAYLOAD,2024-04-09 22:09:40,15.08836012,0.0001299,53.216,176.1706,80.6001,279.5138,4.486e-05,4.26e-06,0.0,0 STARLINK-4708,1 53776U 22111D   24100.92339014  .00000426  00000-0  44860-4 0  9991,2 53776  53.2160 176.1706 0001299  80.6001 279.5138 15.08836012 88411,6917.893,95.438,540.656,538.859,0.0
53776.0,STARLINK-4708,PAYLOAD,2024-04-10 04:31:13,15.08838426,0.0001354,53.2168,174.9813,81.3131,278.8014,2.1565e-05,5.5e-07,0.0,0 STARLINK-4708,1 53776U 22111D   24101.18835011  .00000055  00000-0  21565-4 0  9993,2 53776  53.2168 174.9813 0001354  81.3131 278.8014 15.08838426 87367,6917.885,95.438,540.687,538.814,0.0
53776.0,STARLINK-4708,PAYLOAD,2024-04-10 10:52:45,15.08839419,0.0001323,53.2163,173.7918,82.089,278.0252,3.0448e-05,1.97e-06,0.0,0 STARLINK-4708,1 53776U 22111D   24101.45330901  .00000197  00000-0  30448-4 0  9998,2 53776  53.2163 173.7918 0001323  82.0890 278.0252 15.08839419 88495,6917.882,95.438,540.662,538.832,0.0
53776.0,STARLINK-4708,PAYLOAD,2024-04-10 22:00:27,15.08840099,0.0001335,53.2158,171.7103,81.2098,278.9046,1.8345e-05,4e-08,0.0,0 STARLINK-4708,1 53776U 22111D   24101.91698871  .00000004  00000-0  18345-4 0  9991,2 53776  53.2158 171.7103 0001335  81.2098 278.9046 15.08840099 88561,6917.88,95.438,540.669,538.822,0.0
53776.0,STARLINK-4708,PAYLOAD,2024-04-11 10:43:32,15.08838609,0.0001303,53.2158,169.3313,82.3142,277.7999,2.3485e-05,8.6e-07,0.0,0 STARLINK-4708,1 53776U 22111D   24102.44690926  .00000086  00000-0  23485-4 0  9994,2 53776  53.2158 169.3313 0001303  82.3142 277.7999 15.08838609 87550,6917.885,95.438,540.651,538.848,0.0
53776.0,STARLINK-4708,PAYLOAD,2024-04-11 21:51:14,15.08839875,0.0001292,53.216,167.2497,81.9733,278.1405,1.2672e-05,-8.6e-07,0.0,0 STARLINK-4708,1 53776U 22111D   24102.91058852 -.00000086  00000-0  12672-4 0  9999,2 53776  53.2160 167.2497 0001292  81.9733 278.1405 15.08839875 88713,6917.881,95.438,540.64,538.852,0.0
53776.0,STARLINK-4708,PAYLOAD,2024-04-12 10:34:19,15.08839862,0.0001294,53.2162,164.87,85.6265,274.4875,-2.2611e-07,-2.91e-06,0.0,0 STARLINK-4708,1 53776U 22111D   24103.44050848 -.00000291  00000-0 -22611-6 0  9990,2 53776  53.2162 164.8700 0001294  85.6265 274.4875 15.08839862 88792,6917.881,95.438,540.641,538.851,0.0
53776.0,STARLINK-4708,PAYLOAD,2024-04-13 08:49:43,15.08837117,0.0001276,53.2163,160.707,84.8779,275.2359,-5.1862e-06,-3.7e-06,0.0,0 STARLINK-4708,1 53776U 22111D   24104.36787020 -.00000370  00000-0 -51862-5 0  9998,2 53776  53.2163 160.7070 0001276  84.8779 275.2359 15.08837117 87841,6917.889,95.438,540.637,538.871,0.0
53776.0,STARLINK-4708,PAYLOAD,2024-04-14 10:15:54,15.08835291,0.0001309,53.2165,155.9491,94.3105,265.8037,-1.2802e-05,-4.92e-06,0.0,0 STARLINK-4708,1 53776U 22111D   24105.42771260 -.00000492  00000-0 -12802-4 0  9990,2 53776  53.2165 155.9491 0001309  94.3105 265.8037 15.08835291 88000,6917.895,95.438,540.665,538.854,0.0
53776.0,STARLINK-4708,PAYLOAD,2024-04-15 08:31:18,15.08835881,0.0001275,53.2163,151.7866,86.8148,273.299,1.7564e-05,-8e-08,0.0,0 STARLINK-4708,1 53776U 22111D   24106.35507322 -.00000008  00000-0  17564-4 0  9991,2 53776  53.2163 151.7866 0001275  86.8148 273.2990 15.08835881 89235,6917.893,95.438,540.64,538.876,0.0
53776.0,STARLINK-4708,PAYLOAD,2024-04-15 19:39:00,15.08837491,0.0001293,53.2165,149.7063,89.1688,270.9452,2.9595e-05,1.83e-06,0.0,0 STARLINK-4708,1 53776U 22111D   24106.81875259  .00000183  00000-0  29595-4 0  9999,2 53776  53.2165 149.7063 0001293  89.1688 270.9452 15.08837491 88211,6917.888,95.438,540.648,538.859,0.0
53776.0,STARLINK-4708,PAYLOAD,2024-04-16 09:57:28,15.08834245,0.0001379,53.2168,147.0306,93.7696,266.3454,1.1305e-05,-1.08e-06,0.0,0 STARLINK-4708,1 53776U 22111D   24107.41491704 -.00000108  00000-0  11305-4 0  9993,2 53776  53.2168 147.0306 0001379  93.7696 266.3454 15.08834245 89395,6917.898,95.438,540.717,538.809,0.0
53776.0,STARLINK-4708,PAYLOAD,2024-04-17 11:23:38,15.08838039,0.0001354,53.2162,142.2723,91.3548,268.7599,2.0836e-05,4.4e-07,0.0,0 STARLINK-4708,1 53776U 22111D   24108.47475621  .00000044  00000-0  20836-4 0  9997,2 53776  53.2162 142.2723 0001354  91.3548 268.7599 15.08838039 88460,6917.886,95.438,540.688,538.815,0.0
53776.0,STARLINK-4708,PAYLOAD,2024-04-18 11:14:26,15.08834109,0.000127,53.2152,137.8106,90.1907,269.923,2.0439e-06,-2.55e-06,0.0,0 STARLINK-4708,1 53776U 22111D   24109.46836167 -.00000255  00000-0  20439-5 0  9998,2 53776  53.2152 137.8106 0001270  90.1907 269.9230 15.08834109 89704,6917.898,95.438,540.642,538.885,0.0
53776.0,STARLINK-4708,PAYLOAD,2024-04-19 11:05:12,15.08842334,0.0001395,53.2156,133.3489,82.5002,277.6149,6.0619e-05,6.77e-06,0.0,0 STARLINK-4708,1 53776U 22111D   24110.46195575  .00000677  00000-0  60619-4 0  9991,2 53776  53.2156 133.3489 0001395  82.5002 277.6149 15.08842334 88761,6917.873,95.437,540.703,538.773,0.0
53776.0,STARLINK-4708,PAYLOAD,2024-04-20 07:45:13,15.08843394,0.0001406,53.2154,129.483,81.1986,278.9165,8.1446e-05,1.009e-05,0.0,0 STARLINK-4708,1 53776U 22111D   24111.32307254  .00001009  00000-0  81446-4 0  9997,2 53776  53.2154 129.4830 0001406  81.1986 278.9165 15.08843394 89988,6917.87,95.437,540.708,538.762,0.0
53776.0,STARLINK-4708,PAYLOAD,2024-04-21 04:25:14,15.08837189,0.0001484,53.216,125.6172,96.6721,263.444,-4.8607e-05,-1.061e-05,0.0,0 STARLINK-4708,1 53776U 22111D   24112.18420018 -.00001061  00000-0 -48607-4 0  9998,2 53776  53.2160 125.6172 0001484  96.6721 263.4440 15.08837189 89021,6917.889,95.438,540.781,538.727,0.0
53776.0,STARLINK-4708,PAYLOAD,2024-04-21 07:36:01,15.08829651,0.0001333,53.2161,125.0209,104.9021,255.2119,-0.00011864,-2.175e-05,0.0,0 STARLINK-4708,1 53776U 22111D   24112.31668672 -.00002175  00000-0 -11864-3 0  9994,2 53776  53.2161 125.0209 0001333 104.9021 255.2119 15.08829651 90137,6917.912,95.438,540.699,538.855,0.0
